MOLNIYA 1-49            
1 12156U 81009A   17345.57127953 -.00001148  00000-0  00000-0 0  9997
2 12156  63.9636  50.4021 7132931 247.7197 274.2733  2.05708475187568
